HYPERFIELD-1A           
1 60562U 24149CY  26068.76488211  .00008569  00000+0  30052-3 0  9998
2 60562  97.3842 149.5066 0003865 313.7844  46.3076 15.29681349 86836
STARLINK-36145          
1 66983U 25288AA  26068.28360458  .00028845  00000+0  10532-2 0  9994
2 66983  43.0036  25.8836 0001682 255.2331 104.8334 15.27593375 15220
